TRANSPORTER-12 OBJECT F 
1 62614U 25009F   26068.76753411  .00324599  00000+0  22214-2 0  9995
2 62614  97.3860 159.0379 0006077 265.7860  94.2710 15.73813521 64258
STARLINK-11745 [DTC]    
1 64376U 25127G   26068.18819318  .00275628  00000+0  20640-2 0  9997
2 64376  43.0014  87.5465 0001711 234.1073 125.9636 15.71036491 43427
