[{"OBJECT_NAME":"TRANSPORTER-12 OBJECT F","OBJECT_ID":"2025-009F","EPOCH":"2026-03-09T18:25:14.947104","MEAN_MOTION":15.73813521,"ECCENTRICITY":0.00060767,"INCLINATION":97.386,"RA_OF_ASC_NODE":159.0379,"ARG_OF_PERICENTER":265.786,"MEAN_ANOMALY":94.271,"EPHEMERIS_TYPE":0,"CLASSIFICATION_TYPE":"U","NORAD_CAT_ID":62614,"ELEMENT_SET_NO":999,"REV_AT_EPOCH":6425,"BSTAR":0.0022214492,"MEAN_MOTION_DOT":0.00324599,"MEAN_MOTION_DDOT":0},{"OBJECT_NAME":"STARLINK-11745 [DTC]","OBJECT_ID":"2025-127G","EPOCH":"2026-03-09T04:30:59.890752","MEAN_MOTION":15.71036491,"ECCENTRICITY":0.00017119,"INCLINATION":43.0014,"RA_OF_ASC_NODE":87.5465,"ARG_OF_PERICENTER":234.1073,"MEAN_ANOMALY":125.9636,"EPHEMERIS_TYPE":0,"CLASSIFICATION_TYPE":"U","NORAD_CAT_ID":64376,"ELEMENT_SET_NO":999,"REV_AT_EPOCH":4342,"BSTAR":0.0020639982,"MEAN_MOTION_DOT":0.00275628,"MEAN_MOTION_DDOT":0}]
